{
"type": "FeatureCollection",
"name": "pontos_leucena",
"crs": { "type": "name", "properties": { "name": "urn:ogc:def:crs:OGC:1.3:CRS84" } },
"features": [
{ "type": "Feature", "properties": { "fid": 1, "not_valid": null }, "geometry": { "type": "Point", "coordinates": [ -47.60161799983473, -22.722378999804462, 0.0 ] } },
{ "type": "Feature", "properties": { "fid": 2, "not_valid": null }, "geometry": { "type": "Point", "coordinates": [ -47.601833999834753, -22.721808999804455, 0.0 ] } },
{ "type": "Feature", "properties": { "fid": 3, "not_valid": null }, "geometry": { "type": "Point", "coordinates": [ -47.602675999835242, -22.713149999805005, 0.0 ] } },
{ "type": "Feature", "properties": { "fid": 4, "not_valid": null }, "geometry": { "type": "Point", "coordinates": [ -47.624305999833801, -22.720939999803434, 0.0 ] } },
{ "type": "Feature", "properties": { "fid": 5, "not_valid": 1 }, "geometry": { "type": "Point", "coordinates": [ -47.644338999834019, -22.702101999803812, 0.0 ] } },
{ "type": "Feature", "properties": { "fid": 6, "not_valid": null }, "geometry": { "type": "Point", "coordinates": [ -47.639741999834392, -22.699203999804237, 0.0 ] } },
{ "type": "Feature", "properties": { "fid": 7, "not_valid": 1 }, "geometry": { "type": "Point", "coordinates": [ -47.634518699834963, -22.693426899804862, 0.0 ] } },
{ "type": "Feature", "properties": { "fid": 8, "not_valid": null }, "geometry": { "type": "Point", "coordinates": [ -47.606544999835869, -22.699293999805835, 0.0 ] } },
{ "type": "Feature", "properties": { "fid": 9, "not_valid": null }, "geometry": { "type": "Point", "coordinates": [ -47.601721999836002, -22.700960999805961, 0.0 ] } },
{ "type": "Feature", "properties": { "fid": 10, "not_valid": null }, "geometry": { "type": "Point", "coordinates": [ -47.676875999830763, -22.732377999800089, 0.0 ] } },
{ "type": "Feature", "properties": { "fid": 11, "not_valid": null }, "geometry": { "type": "Point", "coordinates": [ -47.603624299831793, -22.770462099801009, 0.0 ] } },
{ "type": "Feature", "properties": { "fid": 12, "not_valid": null }, "geometry": { "type": "Point", "coordinates": [ -47.543563599834307, -22.773670399803681, 0.0 ] } },
{ "type": "Feature", "properties": { "fid": 13, "not_valid": null }, "geometry": { "type": "Point", "coordinates": [ -47.630737799831344, -22.75748609980057, 0.0 ] } },
{ "type": "Feature", "properties": { "fid": 14, "not_valid": null }, "geometry": { "type": "Point", "coordinates": [ -47.631548099831264, -22.758488599800476, 0.0 ] } },
{ "type": "Feature", "properties": { "fid": 15, "not_valid": null }, "geometry": { "type": "Point", "coordinates": [ -47.662251199830528, -22.747528399799748, 0.0 ] } },
{ "type": "Feature", "properties": { "fid": 16, "not_valid": null }, "geometry": { "type": "Point", "coordinates": [ -47.108609999846252, -22.898635999816136, 0.0 ] } },
{ "type": "Feature", "properties": { "fid": 17, "not_valid": null }, "geometry": { "type": "Point", "coordinates": [ -47.414247199883675, -22.028629399861757, 0.0 ] } },
{ "type": "Feature", "properties": { "fid": 18, "not_valid": null }, "geometry": { "type": "Point", "coordinates": [ -47.077213899853326, -22.801668099824461, 0.0 ] } },
{ "type": "Feature", "properties": { "fid": 19, "not_valid": null }, "geometry": { "type": "Point", "coordinates": [ -48.19453979986325, -21.783517099840164, 0.0 ] } },
{ "type": "Feature", "properties": { "fid": 20, "not_valid": null }, "geometry": { "type": "Point", "coordinates": [ -48.195445799863208, -21.783819099840088, 0.0 ] } },
{ "type": "Feature", "properties": { "fid": 21, "not_valid": null }, "geometry": { "type": "Point", "coordinates": [ -47.41775329988365, -22.026548399861735, 0.0 ] } },
{ "type": "Feature", "properties": { "fid": 22, "not_valid": null }, "geometry": { "type": "Point", "coordinates": [ -47.529634899791759, -23.498111799753499, 0.0 ] } },
{ "type": "Feature", "properties": { "fid": 23, "not_valid": null }, "geometry": { "type": "Point", "coordinates": [ -47.399014399873742, -22.21104549984992, 0.0 ] } },
{ "type": "Feature", "properties": { "fid": 24, "not_valid": null }, "geometry": { "type": "Point", "coordinates": [ -46.9652778998841, -22.358076399860924, 0.0 ] } },
{ "type": "Feature", "properties": { "fid": 25, "not_valid": null }, "geometry": { "type": "Point", "coordinates": [ -46.964166299884226, -22.356666299861029, 0.0 ] } },
{ "type": "Feature", "properties": { "fid": 26, "not_valid": null }, "geometry": { "type": "Point", "coordinates": [ -46.964287499884065, -22.359224699860853, 0.0 ] } },
{ "type": "Feature", "properties": { "fid": 27, "not_valid": null }, "geometry": { "type": "Point", "coordinates": [ -46.678094899828977, -23.511165799793641, 0.0 ] } },
{ "type": "Feature", "properties": { "fid": 28, "not_valid": null }, "geometry": { "type": "Point", "coordinates": [ -47.684977499767434, -23.783835399725714, 0.0 ] } },
{ "type": "Feature", "properties": { "fid": 29, "not_valid": null }, "geometry": { "type": "Point", "coordinates": [ -47.136289899844954, -22.899892599814716, 0.0 ] } },
{ "type": "Feature", "properties": { "fid": 30, "not_valid": null }, "geometry": { "type": "Point", "coordinates": [ -48.431869999788759, -22.856455899754522, 0.0 ] } },
{ "type": "Feature", "properties": { "fid": 31, "not_valid": null }, "geometry": { "type": "Point", "coordinates": [ -47.57803609978167, -23.629079399741844, 0.0 ] } },
{ "type": "Feature", "properties": { "fid": 32, "not_valid": null }, "geometry": { "type": "Point", "coordinates": [ -47.576831799781772, -23.628473599741998, 0.0 ] } },
{ "type": "Feature", "properties": { "fid": 33, "not_valid": null }, "geometry": { "type": "Point", "coordinates": [ -47.578377299781529, -23.631406299741659, 0.0 ] } },
{ "type": "Feature", "properties": { "fid": 34, "not_valid": null }, "geometry": { "type": "Point", "coordinates": [ -46.523383999859071, -23.11444379982925, 0.0 ] } },
{ "type": "Feature", "properties": { "fid": 35, "not_valid": 1 }, "geometry": { "type": "Point", "coordinates": [ -47.071303399854358, -22.788312899825684, 0.0 ] } },
{ "type": "Feature", "properties": { "fid": 36, "not_valid": null }, "geometry": { "type": "Point", "coordinates": [ -47.078440699852898, -22.808299699823934, 0.0 ] } },
{ "type": "Feature", "properties": { "fid": 37, "not_valid": null }, "geometry": { "type": "Point", "coordinates": [ -47.076297799850487, -22.850495299821098, 0.0 ] } },
{ "type": "Feature", "properties": { "fid": 38, "not_valid": null }, "geometry": { "type": "Point", "coordinates": [ -47.4006524997978, -23.495166799759943, 0.0 ] } },
{ "type": "Feature", "properties": { "fid": 39, "not_valid": 1 }, "geometry": { "type": "Point", "coordinates": [ -47.544581599856379, -22.398246499829792, 0.0 ] } },
{ "type": "Feature", "properties": { "fid": 40, "not_valid": null }, "geometry": { "type": "Point", "coordinates": [ -48.432411899788903, -22.853396999754715, 0.0 ] } },
{ "type": "Feature", "properties": { "fid": 41, "not_valid": null }, "geometry": { "type": "Point", "coordinates": [ -47.077096699853413, -22.800347899824576, 0.0 ] } },
{ "type": "Feature", "properties": { "fid": 42, "not_valid": null }, "geometry": { "type": "Point", "coordinates": [ -47.643241999830195, -22.767468999799277, 0.0 ] } },
{ "type": "Feature", "properties": { "fid": 43, "not_valid": null }, "geometry": { "type": "Point", "coordinates": [ -47.080570999852164, -22.818858799823101, 0.0 ] } },
{ "type": "Feature", "properties": { "fid": 44, "not_valid": null }, "geometry": { "type": "Point", "coordinates": [ -47.643169299830198, -22.767491899799285, 0.0 ] } },
{ "type": "Feature", "properties": { "fid": 45, "not_valid": null }, "geometry": { "type": "Point", "coordinates": [ -47.6431195998302, -22.767491899799296, 0.0 ] } },
{ "type": "Feature", "properties": { "fid": 46, "not_valid": null }, "geometry": { "type": "Point", "coordinates": [ -47.643061999830216, -22.767465899799298, 0.0 ] } },
{ "type": "Feature", "properties": { "fid": 47, "not_valid": null }, "geometry": { "type": "Point", "coordinates": [ -46.982416799852793, -22.881488999823475, 0.0 ] } },
{ "type": "Feature", "properties": { "fid": 48, "not_valid": null }, "geometry": { "type": "Point", "coordinates": [ -46.982435599852799, -22.881427899823436, 0.0 ] } },
{ "type": "Feature", "properties": { "fid": 49, "not_valid": null }, "geometry": { "type": "Point", "coordinates": [ -46.982438299852809, -22.881361799823495, 0.0 ] } },
{ "type": "Feature", "properties": { "fid": 50, "not_valid": null }, "geometry": { "type": "Point", "coordinates": [ -46.982438399852803, -22.881300899823479, 0.0 ] } },
{ "type": "Feature", "properties": { "fid": 51, "not_valid": null }, "geometry": { "type": "Point", "coordinates": [ -46.982381199852782, -22.88151529982348, 0.0 ] } },
{ "type": "Feature", "properties": { "fid": 52, "not_valid": null }, "geometry": { "type": "Point", "coordinates": [ -46.982346999852794, -22.88153569982348, 0.0 ] } },
{ "type": "Feature", "properties": { "fid": 53, "not_valid": null }, "geometry": { "type": "Point", "coordinates": [ -46.982299399852792, -22.881557999823499, 0.0 ] } },
{ "type": "Feature", "properties": { "fid": 54, "not_valid": null }, "geometry": { "type": "Point", "coordinates": [ -46.98225239985279, -22.881577099823485, 0.0 ] } },
{ "type": "Feature", "properties": { "fid": 55, "not_valid": null }, "geometry": { "type": "Point", "coordinates": [ -46.982192099852803, -22.881603099823465, 0.0 ] } },
{ "type": "Feature", "properties": { "fid": 56, "not_valid": null }, "geometry": { "type": "Point", "coordinates": [ -47.008687099850725, -22.897120699821112, 0.0 ] } },
{ "type": "Feature", "properties": { "fid": 57, "not_valid": null }, "geometry": { "type": "Point", "coordinates": [ -47.008248599850752, -22.896920599821133, 0.0 ] } },
{ "type": "Feature", "properties": { "fid": 58, "not_valid": null }, "geometry": { "type": "Point", "coordinates": [ -47.008088999850742, -22.896953999821136, 0.0 ] } },
{ "type": "Feature", "properties": { "fid": 59, "not_valid": null }, "geometry": { "type": "Point", "coordinates": [ -47.008009899850762, -22.896861299821129, 0.0 ] } },
{ "type": "Feature", "properties": { "fid": 60, "not_valid": null }, "geometry": { "type": "Point", "coordinates": [ -47.00795219985077, -22.896788399821137, 0.0 ] } },
{ "type": "Feature", "properties": { "fid": 61, "not_valid": null }, "geometry": { "type": "Point", "coordinates": [ -47.007596799850795, -22.896804499821165, 0.0 ] } },
{ "type": "Feature", "properties": { "fid": 62, "not_valid": null }, "geometry": { "type": "Point", "coordinates": [ -47.007490899850794, -22.896804499821162, 0.0 ] } },
{ "type": "Feature", "properties": { "fid": 63, "not_valid": null }, "geometry": { "type": "Point", "coordinates": [ -47.007396999850798, -22.896804499821211, 0.0 ] } },
{ "type": "Feature", "properties": { "fid": 64, "not_valid": null }, "geometry": { "type": "Point", "coordinates": [ -47.007320599850814, -22.89675259982118, 0.0 ] } },
{ "type": "Feature", "properties": { "fid": 65, "not_valid": null }, "geometry": { "type": "Point", "coordinates": [ -47.00753509985082, -22.896263399821205, 0.0 ] } },
{ "type": "Feature", "properties": { "fid": 66, "not_valid": null }, "geometry": { "type": "Point", "coordinates": [ -47.007733599850816, -22.896422099821187, 0.0 ] } },
{ "type": "Feature", "properties": { "fid": 67, "not_valid": null }, "geometry": { "type": "Point", "coordinates": [ -47.637596799830632, -22.764449999799776, 0.0 ] } },
{ "type": "Feature", "properties": { "fid": 68, "not_valid": null }, "geometry": { "type": "Point", "coordinates": [ -47.637504199830644, -22.764473499799742, 0.0 ] } },
{ "type": "Feature", "properties": { "fid": 69, "not_valid": null }, "geometry": { "type": "Point", "coordinates": [ -47.637421099830625, -22.76450569979977, 0.0 ] } },
{ "type": "Feature", "properties": { "fid": 70, "not_valid": null }, "geometry": { "type": "Point", "coordinates": [ -47.637327199830629, -22.764542799799777, 0.0 ] } },
{ "type": "Feature", "properties": { "fid": 71, "not_valid": null }, "geometry": { "type": "Point", "coordinates": [ -47.637221199830634, -22.764590999799758, 0.0 ] } },
{ "type": "Feature", "properties": { "fid": 72, "not_valid": null }, "geometry": { "type": "Point", "coordinates": [ -47.63712199983064, -22.764641699799757, 0.0 ] } },
{ "type": "Feature", "properties": { "fid": 73, "not_valid": null }, "geometry": { "type": "Point", "coordinates": [ -47.637525699830604, -22.764652799799762, 0.0 ] } },
{ "type": "Feature", "properties": { "fid": 74, "not_valid": null }, "geometry": { "type": "Point", "coordinates": [ -47.637442499830634, -22.764676299799763, 0.0 ] } },
{ "type": "Feature", "properties": { "fid": 75, "not_valid": null }, "geometry": { "type": "Point", "coordinates": [ -47.637339299830629, -22.764718399799719, 0.0 ] } },
{ "type": "Feature", "properties": { "fid": 76, "not_valid": null }, "geometry": { "type": "Point", "coordinates": [ -47.63723729983063, -22.7647529997998, 0.0 ] } },
{ "type": "Feature", "properties": { "fid": 77, "not_valid": null }, "geometry": { "type": "Point", "coordinates": [ -47.637147499830625, -22.764802499799764, 0.0 ] } },
{ "type": "Feature", "properties": { "fid": 78, "not_valid": null }, "geometry": { "type": "Point", "coordinates": [ -47.637052299830636, -22.764832199799773, 0.0 ] } },
{ "type": "Feature", "properties": { "fid": 79, "not_valid": null }, "geometry": { "type": "Point", "coordinates": [ -47.636967799830636, -22.764863099799776, 0.0 ] } },
{ "type": "Feature", "properties": { "fid": 80, "not_valid": null }, "geometry": { "type": "Point", "coordinates": [ -47.636885999830632, -22.764908799799766, 0.0 ] } },
{ "type": "Feature", "properties": { "fid": 81, "not_valid": null }, "geometry": { "type": "Point", "coordinates": [ -47.63679339983063, -22.764948399799756, 0.0 ] } },
{ "type": "Feature", "properties": { "fid": 82, "not_valid": null }, "geometry": { "type": "Point", "coordinates": [ -47.63668749983065, -22.764987999799754, 0.0 ] } },
{ "type": "Feature", "properties": { "fid": 83, "not_valid": null }, "geometry": { "type": "Point", "coordinates": [ -47.636610999830651, -22.765015199799766, 0.0 ] } },
{ "type": "Feature", "properties": { "fid": 84, "not_valid": null }, "geometry": { "type": "Point", "coordinates": [ -47.065895599854812, -22.784655199826183, 0.0 ] } },
{ "type": "Feature", "properties": { "fid": 85, "not_valid": null }, "geometry": { "type": "Point", "coordinates": [ -47.033640199853323, -22.834322699824305, 0.0 ] } },
{ "type": "Feature", "properties": { "fid": 86, "not_valid": null }, "geometry": { "type": "Point", "coordinates": [ -47.044084099850018, -22.882716499820386, 0.0 ] } },
{ "type": "Feature", "properties": { "fid": 87, "not_valid": null }, "geometry": { "type": "Point", "coordinates": [ -47.052410999849371, -22.88728259981967, 0.0 ] } },
{ "type": "Feature", "properties": { "fid": 88, "not_valid": null }, "geometry": { "type": "Point", "coordinates": [ -47.628091099833959, -22.71544099980364, 0.0 ] } },
{ "type": "Feature", "properties": { "fid": 89, "not_valid": null }, "geometry": { "type": "Point", "coordinates": [ -47.620414999834246, -22.71638729980398, 0.0 ] } },
{ "type": "Feature", "properties": { "fid": 90, "not_valid": null }, "geometry": { "type": "Point", "coordinates": [ -47.385585299799324, -23.480898199761697, 0.0 ] } },
{ "type": "Feature", "properties": { "fid": 91, "not_valid": null }, "geometry": { "type": "Point", "coordinates": [ -47.391104499798324, -23.493361199760521, 0.0 ] } },
{ "type": "Feature", "properties": { "fid": 92, "not_valid": null }, "geometry": { "type": "Point", "coordinates": [ -47.399578899797746, -23.496784199759837, 0.0 ] } },
{ "type": "Feature", "properties": { "fid": 93, "not_valid": null }, "geometry": { "type": "Point", "coordinates": [ -47.400737799797767, -23.495296899759918, 0.0 ] } },
{ "type": "Feature", "properties": { "fid": 94, "not_valid": null }, "geometry": { "type": "Point", "coordinates": [ -47.403795799797628, -23.495483599759758, 0.0 ] } },
{ "type": "Feature", "properties": { "fid": 95, "not_valid": null }, "geometry": { "type": "Point", "coordinates": [ -47.405245699797483, -23.496789199759576, 0.0 ] } },
{ "type": "Feature", "properties": { "fid": 96, "not_valid": null }, "geometry": { "type": "Point", "coordinates": [ -47.414495399796579, -23.505000099758558, 0.0 ] } },
{ "type": "Feature", "properties": { "fid": 97, "not_valid": null }, "geometry": { "type": "Point", "coordinates": [ -47.413633399796595, -23.505212599758593, 0.0 ] } },
{ "type": "Feature", "properties": { "fid": 98, "not_valid": null }, "geometry": { "type": "Point", "coordinates": [ -47.4182710997962, -23.508468199758145, 0.0 ] } },
{ "type": "Feature", "properties": { "fid": 99, "not_valid": null }, "geometry": { "type": "Point", "coordinates": [ -47.420661699795907, -23.5114127997578, 0.0 ] } },
{ "type": "Feature", "properties": { "fid": 100, "not_valid": null }, "geometry": { "type": "Point", "coordinates": [ -47.120811599851088, -22.80707109982194, 0.0 ] } },
{ "type": "Feature", "properties": { "fid": 101, "not_valid": null }, "geometry": { "type": "Point", "coordinates": [ -47.277251699843106, -22.825565399813037, 0.0 ] } },
{ "type": "Feature", "properties": { "fid": 102, "not_valid": null }, "geometry": { "type": "Point", "coordinates": [ -47.080775499850674, -22.844145599821307, 0.0 ] } },
{ "type": "Feature", "properties": { "fid": 103, "not_valid": null }, "geometry": { "type": "Point", "coordinates": [ -47.10293679984936, -22.84977449981983, 0.0 ] } },
{ "type": "Feature", "properties": { "fid": 104, "not_valid": null }, "geometry": { "type": "Point", "coordinates": [ -47.11169969984892, -22.850867199819326, 0.0 ] } },
{ "type": "Feature", "properties": { "fid": 105, "not_valid": null }, "geometry": { "type": "Point", "coordinates": [ -47.121915599848364, -22.852865099818704, 0.0 ] } },
{ "type": "Feature", "properties": { "fid": 106, "not_valid": null }, "geometry": { "type": "Point", "coordinates": [ -47.215006999846899, -22.807984899817313, 0.0 ] } },
{ "type": "Feature", "properties": { "fid": 107, "not_valid": null }, "geometry": { "type": "Point", "coordinates": [ -47.251829599844655, -22.818401999814778, 0.0 ] } },
{ "type": "Feature", "properties": { "fid": 108, "not_valid": null }, "geometry": { "type": "Point", "coordinates": [ -47.259861999844198, -22.81998039981433, 0.0 ] } },
{ "type": "Feature", "properties": { "fid": 109, "not_valid": null }, "geometry": { "type": "Point", "coordinates": [ -47.26315999984412, -22.818992199814193, 0.0 ] } },
{ "type": "Feature", "properties": { "fid": 110, "not_valid": null }, "geometry": { "type": "Point", "coordinates": [ -47.26387719984416, -22.81798799981425, 0.0 ] } },
{ "type": "Feature", "properties": { "fid": 111, "not_valid": null }, "geometry": { "type": "Point", "coordinates": [ -47.264586499844135, -22.81754309981422, 0.0 ] } },
{ "type": "Feature", "properties": { "fid": 112, "not_valid": null }, "geometry": { "type": "Point", "coordinates": [ -47.644209999831361, -22.747049599800661, 0.0 ] } },
{ "type": "Feature", "properties": { "fid": 113, "not_valid": null }, "geometry": { "type": "Point", "coordinates": [ -50.4220595997039, -22.662367799669969, 0.0 ] } },
{ "type": "Feature", "properties": { "fid": 114, "not_valid": null }, "geometry": { "type": "Point", "coordinates": [ -47.484986799838083, -22.75399319980794, 0.0 ] } },
{ "type": "Feature", "properties": { "fid": 115, "not_valid": null }, "geometry": { "type": "Point", "coordinates": [ -47.477557399838304, -22.756184699808131, 0.0 ] } },
{ "type": "Feature", "properties": { "fid": 116, "not_valid": null }, "geometry": { "type": "Point", "coordinates": [ -47.466170099838642, -22.758748699808503, 0.0 ] } },
{ "type": "Feature", "properties": { "fid": 117, "not_valid": null }, "geometry": { "type": "Point", "coordinates": [ -47.462179199838708, -22.760739299808577, 0.0 ] } },
{ "type": "Feature", "properties": { "fid": 118, "not_valid": null }, "geometry": { "type": "Point", "coordinates": [ -47.098936199840651, -23.000985299809408, 0.0 ] } },
{ "type": "Feature", "properties": { "fid": 119, "not_valid": null }, "geometry": { "type": "Point", "coordinates": [ -46.930333599836587, -23.195577499803857, 0.0 ] } },
{ "type": "Feature", "properties": { "fid": 120, "not_valid": null }, "geometry": { "type": "Point", "coordinates": [ -47.006952099850501, -22.902201299820806, 0.0 ] } },
{ "type": "Feature", "properties": { "fid": 121, "not_valid": null }, "geometry": { "type": "Point", "coordinates": [ -47.013523299849517, -22.914119799819645, 0.0 ] } },
{ "type": "Feature", "properties": { "fid": 122, "not_valid": null }, "geometry": { "type": "Point", "coordinates": [ -47.069794899853065, -22.811613499824116, 0.0 ] } },
{ "type": "Feature", "properties": { "fid": 123, "not_valid": null }, "geometry": { "type": "Point", "coordinates": [ -48.434403999788515, -22.858254699754298, 0.0 ] } },
{ "type": "Feature", "properties": { "fid": 124, "not_valid": null }, "geometry": { "type": "Point", "coordinates": [ -47.207301499841662, -22.90235339981108, 0.0 ] } },
{ "type": "Feature", "properties": { "fid": 125, "not_valid": null }, "geometry": { "type": "Point", "coordinates": [ -47.204344599841683, -22.904263299811085, 0.0 ] } },
{ "type": "Feature", "properties": { "fid": 126, "not_valid": null }, "geometry": { "type": "Point", "coordinates": [ -47.202951699841783, -22.903898499811199, 0.0 ] } },
{ "type": "Feature", "properties": { "fid": 127, "not_valid": null }, "geometry": { "type": "Point", "coordinates": [ -47.193948199842438, -22.89931199981195, 0.0 ] } },
{ "type": "Feature", "properties": { "fid": 128, "not_valid": null }, "geometry": { "type": "Point", "coordinates": [ -47.178565799843518, -22.892729099813142, 0.0 ] } },
{ "type": "Feature", "properties": { "fid": 129, "not_valid": null }, "geometry": { "type": "Point", "coordinates": [ -47.165709199844216, -22.890508699813942, 0.0 ] } },
{ "type": "Feature", "properties": { "fid": 130, "not_valid": null }, "geometry": { "type": "Point", "coordinates": [ -47.360120399839076, -22.831443399808624, 0.0 ] } },
{ "type": "Feature", "properties": { "fid": 131, "not_valid": null }, "geometry": { "type": "Point", "coordinates": [ -47.014431799854357, -22.830975999825458, 0.0 ] } },
{ "type": "Feature", "properties": { "fid": 132, "not_valid": null }, "geometry": { "type": "Point", "coordinates": [ -47.009158599855517, -22.815139299826846, 0.0 ] } },
{ "type": "Feature", "properties": { "fid": 133, "not_valid": null }, "geometry": { "type": "Point", "coordinates": [ -47.03064609985212, -22.856910299822822, 0.0 ] } },
{ "type": "Feature", "properties": { "fid": 134, "not_valid": null }, "geometry": { "type": "Point", "coordinates": [ -47.030741599851858, -22.861466999822554, 0.0 ] } },
{ "type": "Feature", "properties": { "fid": 135, "not_valid": null }, "geometry": { "type": "Point", "coordinates": [ -47.036600299850889, -22.87352319982136, 0.0 ] } },
{ "type": "Feature", "properties": { "fid": 136, "not_valid": null }, "geometry": { "type": "Point", "coordinates": [ -47.027320399849636, -22.901833399819854, 0.0 ] } },
{ "type": "Feature", "properties": { "fid": 137, "not_valid": null }, "geometry": { "type": "Point", "coordinates": [ -46.920392899838291, -23.174203699805844, 0.0 ] } },
{ "type": "Feature", "properties": { "fid": 138, "not_valid": null }, "geometry": { "type": "Point", "coordinates": [ -46.907687199837923, -23.189682899805383, 0.0 ] } },
{ "type": "Feature", "properties": { "fid": 139, "not_valid": null }, "geometry": { "type": "Point", "coordinates": [ -46.802686099825841, -23.471974199790456, 0.0 ] } },
{ "type": "Feature", "properties": { "fid": 140, "not_valid": null }, "geometry": { "type": "Point", "coordinates": [ -46.820613099820285, -23.552261999783873, 0.0 ] } },
{ "type": "Feature", "properties": { "fid": 141, "not_valid": null }, "geometry": { "type": "Point", "coordinates": [ -46.817284799819589, -23.566433399783062, 0.0 ] } },
{ "type": "Feature", "properties": { "fid": 142, "not_valid": null }, "geometry": { "type": "Point", "coordinates": [ -46.811576599817826, -23.600286199780893, 0.0 ] } },
{ "type": "Feature", "properties": { "fid": 143, "not_valid": null }, "geometry": { "type": "Point", "coordinates": [ -46.81333029981775, -23.600125599780821, 0.0 ] } },
{ "type": "Feature", "properties": { "fid": 144, "not_valid": null }, "geometry": { "type": "Point", "coordinates": [ -47.006855399789359, -23.931124399747898, 0.0 ] } },
{ "type": "Feature", "properties": { "fid": 145, "not_valid": null }, "geometry": { "type": "Point", "coordinates": [ -47.503075577672597, -24.309280090379428, 0.0 ] } },
{ "type": "Feature", "properties": { "fid": 146, "not_valid": null }, "geometry": { "type": "Point", "coordinates": [ -47.747773499726371, -24.408588999678141, 0.0 ] } },
{ "type": "Feature", "properties": { "fid": 147, "not_valid": null }, "geometry": { "type": "Point", "coordinates": [ -51.509050599721377, -21.475318099695766, 0.0 ] } },
{ "type": "Feature", "properties": { "fid": 148, "not_valid": null }, "geometry": { "type": "Point", "coordinates": [ -51.514621299720758, -21.480701599695127, 0.0 ] } },
{ "type": "Feature", "properties": { "fid": 149, "not_valid": null }, "geometry": { "type": "Point", "coordinates": [ -51.513126699720502, -21.486278899694796, 0.0 ] } },
{ "type": "Feature", "properties": { "fid": 150, "not_valid": null }, "geometry": { "type": "Point", "coordinates": [ -51.264264999729043, -21.555698699702674, 0.0 ] } },
{ "type": "Feature", "properties": { "fid": 151, "not_valid": null }, "geometry": { "type": "Point", "coordinates": [ -51.244133199729909, -21.558057999703511, 0.0 ] } },
{ "type": "Feature", "properties": { "fid": 152, "not_valid": null }, "geometry": { "type": "Point", "coordinates": [ -51.224091899730546, -21.564569599704114, 0.0 ] } },
{ "type": "Feature", "properties": { "fid": 153, "not_valid": null }, "geometry": { "type": "Point", "coordinates": [ -51.156237699731228, -21.610038099704468, 0.0 ] } },
{ "type": "Feature", "properties": { "fid": 154, "not_valid": null }, "geometry": { "type": "Point", "coordinates": [ -51.15493029973122, -21.6110847997045, 0.0 ] } },
{ "type": "Feature", "properties": { "fid": 155, "not_valid": null }, "geometry": { "type": "Point", "coordinates": [ -51.081745299731914, -21.66108149970481, 0.0 ] } },
{ "type": "Feature", "properties": { "fid": 156, "not_valid": null }, "geometry": { "type": "Point", "coordinates": [ -51.052419699732013, -21.683854099704742, 0.0 ] } },
{ "type": "Feature", "properties": { "fid": 157, "not_valid": null }, "geometry": { "type": "Point", "coordinates": [ -48.434403999788515, -22.858254699754298, 0.0 ] } },
{ "type": "Feature", "properties": { "fid": 158, "not_valid": null }, "geometry": { "type": "Point", "coordinates": [ -48.426927499789578, -22.846376999755478, 0.0 ] } },
{ "type": "Feature", "properties": { "fid": 159, "not_valid": null }, "geometry": { "type": "Point", "coordinates": [ -48.434536599788501, -22.858472499754292, 0.0 ] } },
{ "type": "Feature", "properties": { "fid": 160, "not_valid": null }, "geometry": { "type": "Point", "coordinates": [ -47.084619299840789, -23.009257399809538, 0.0 ] } },
{ "type": "Feature", "properties": { "fid": 161, "not_valid": null }, "geometry": { "type": "Point", "coordinates": [ -47.080721099840439, -23.017890399809112, 0.0 ] } },
{ "type": "Feature", "properties": { "fid": 162, "not_valid": null }, "geometry": { "type": "Point", "coordinates": [ -47.071312299839846, -23.035150899808357, 0.0 ] } },
{ "type": "Feature", "properties": { "fid": 163, "not_valid": null }, "geometry": { "type": "Point", "coordinates": [ -47.040646799839656, -23.061194499807982, 0.0 ] } },
{ "type": "Feature", "properties": { "fid": 164, "not_valid": null }, "geometry": { "type": "Point", "coordinates": [ -47.013021199838654, -23.098806499806702, 0.0 ] } },
{ "type": "Feature", "properties": { "fid": 165, "not_valid": null }, "geometry": { "type": "Point", "coordinates": [ -46.978839799837935, -23.136489699805701, 0.0 ] } },
{ "type": "Feature", "properties": { "fid": 166, "not_valid": null }, "geometry": { "type": "Point", "coordinates": [ -46.954858899837888, -23.155183399805519, 0.0 ] } },
{ "type": "Feature", "properties": { "fid": 167, "not_valid": null }, "geometry": { "type": "Point", "coordinates": [ -46.947385099837696, -23.163987499805273, 0.0 ] } },
{ "type": "Feature", "properties": { "fid": 168, "not_valid": null }, "geometry": { "type": "Point", "coordinates": [ -46.921537399835977, -23.212570099803091, 0.0 ] } },
{ "type": "Feature", "properties": { "fid": 169, "not_valid": null }, "geometry": { "type": "Point", "coordinates": [ -46.782674899833076, -23.364557099799015, 0.0 ] } },
{ "type": "Feature", "properties": { "fid": 170, "not_valid": null }, "geometry": { "type": "Point", "coordinates": [ -46.744108099828225, -23.475104799793023, 0.0 ] } },
{ "type": "Feature", "properties": { "fid": 171, "not_valid": null }, "geometry": { "type": "Point", "coordinates": [ -46.721010899827242, -23.50892319979177, 0.0 ] } },
{ "type": "Feature", "properties": { "fid": 172, "not_valid": null }, "geometry": { "type": "Point", "coordinates": [ -46.740883499824463, -23.540861499788537, 0.0 ] } },
{ "type": "Feature", "properties": { "fid": 173, "not_valid": null }, "geometry": { "type": "Point", "coordinates": [ -46.709907199824961, -23.555518999788987, 0.0 ] } },
{ "type": "Feature", "properties": { "fid": 174, "not_valid": null }, "geometry": { "type": "Point", "coordinates": [ -47.626372399834132, -22.713711099803859, 0.0 ] } },
{ "type": "Feature", "properties": { "fid": 175, "not_valid": null }, "geometry": { "type": "Point", "coordinates": [ -51.341054499795291, -20.392646399775597, 0.0 ] } },
{ "type": "Feature", "properties": { "fid": 176, "not_valid": null }, "geometry": { "type": "Point", "coordinates": [ -51.340904299795262, -20.39344079977554, 0.0 ] } },
{ "type": "Feature", "properties": { "fid": 177, "not_valid": null }, "geometry": { "type": "Point", "coordinates": [ -51.346064899795216, -20.389728699775546, 0.0 ] } },
{ "type": "Feature", "properties": { "fid": 178, "not_valid": null }, "geometry": { "type": "Point", "coordinates": [ -51.351933599794272, -20.400732699774526, 0.0 ] } },
{ "type": "Feature", "properties": { "fid": 179, "not_valid": null }, "geometry": { "type": "Point", "coordinates": [ -51.361070499792, -20.430839899772081, 0.0 ] } },
{ "type": "Feature", "properties": { "fid": 180, "not_valid": null }, "geometry": { "type": "Point", "coordinates": [ -47.60170649983035, -22.796431399799268, 0.0 ] } },
{ "type": "Feature", "properties": { "fid": 181, "not_valid": null }, "geometry": { "type": "Point", "coordinates": [ -48.880287199699595, -23.966832499654966, 0.0 ] } },
{ "type": "Feature", "properties": { "fid": 182, "not_valid": null }, "geometry": { "type": "Point", "coordinates": [ -48.879160599699617, -23.967406099654962, 0.0 ] } },
{ "type": "Feature", "properties": { "fid": 183, "not_valid": null }, "geometry": { "type": "Point", "coordinates": [ -48.88043199969961, -23.966307999654965, 0.0 ] } },
{ "type": "Feature", "properties": { "fid": 184, "not_valid": null }, "geometry": { "type": "Point", "coordinates": [ -48.879106999699559, -23.968493199654887, 0.0 ] } },
{ "type": "Feature", "properties": { "fid": 185, "not_valid": null }, "geometry": { "type": "Point", "coordinates": [ -48.878849499699513, -23.969238299654826, 0.0 ] } },
{ "type": "Feature", "properties": { "fid": 186, "not_valid": null }, "geometry": { "type": "Point", "coordinates": [ -48.876016799699478, -23.972102699654787, 0.0 ] } },
{ "type": "Feature", "properties": { "fid": 187, "not_valid": null }, "geometry": { "type": "Point", "coordinates": [ -48.868283499699587, -23.976283999654875, 0.0 ] } },
{ "type": "Feature", "properties": { "fid": 188, "not_valid": null }, "geometry": { "type": "Point", "coordinates": [ -48.86978589969943, -23.977820499654669, 0.0 ] } },
{ "type": "Feature", "properties": { "fid": 189, "not_valid": null }, "geometry": { "type": "Point", "coordinates": [ -48.883292599697995, -23.990207599653129, 0.0 ] } },
{ "type": "Feature", "properties": { "fid": 190, "not_valid": null }, "geometry": { "type": "Point", "coordinates": [ -48.884660499697532, -23.996637499652671, 0.0 ] } },
{ "type": "Feature", "properties": { "fid": 191, "not_valid": null }, "geometry": { "type": "Point", "coordinates": [ -46.557797999824238, -23.679921999787428, 660.4 ] } },
{ "type": "Feature", "properties": { "fid": 192, "not_valid": null }, "geometry": { "type": "Point", "coordinates": [ -47.110238999840675, -22.992033999809493, 642.6 ] } },
{ "type": "Feature", "properties": { "fid": 193, "not_valid": null }, "geometry": { "type": "Point", "coordinates": [ -46.72708799982442, -23.5517169997884, 720.0 ] } },
{ "type": "Feature", "properties": { "fid": 194, "not_valid": null }, "geometry": { "type": "Point", "coordinates": [ -47.473132999825822, -22.970073999793403, 536.8 ] } },
{ "type": "Feature", "properties": { "fid": 195, "not_valid": null }, "geometry": { "type": "Point", "coordinates": [ -47.456679999824857, -22.998856999792167, 575.8 ] } },
{ "type": "Feature", "properties": { "fid": 196, "not_valid": null }, "geometry": { "type": "Point", "coordinates": [ -47.441280999824649, -23.013897999791869, 517.4 ] } },
{ "type": "Feature", "properties": { "fid": 197, "not_valid": null }, "geometry": { "type": "Point", "coordinates": [ -47.426505999824272, -23.031726999791346, 568.8 ] } },
{ "type": "Feature", "properties": { "fid": 198, "not_valid": null }, "geometry": { "type": "Point", "coordinates": [ -47.347436999820552, -23.153864999786581, 551.0 ] } },
{ "type": "Feature", "properties": { "fid": 199, "not_valid": null }, "geometry": { "type": "Point", "coordinates": [ -47.345471999820475, -23.156739999786481, 548.6 ] } },
{ "type": "Feature", "properties": { "fid": 200, "not_valid": null }, "geometry": { "type": "Point", "coordinates": [ -47.335575999820001, -23.172122999785884, 543.8 ] } },
{ "type": "Feature", "properties": { "fid": 201, "not_valid": null }, "geometry": { "type": "Point", "coordinates": [ -47.430668999824434, -23.025554999791574, 500.0 ] } },
{ "type": "Feature", "properties": { "fid": 202, "not_valid": null }, "geometry": { "type": "Point", "coordinates": [ -47.442884999824678, -23.012245999791883, 519.0 ] } },
{ "type": "Feature", "properties": { "fid": 203, "not_valid": null }, "geometry": { "type": "Point", "coordinates": [ -47.454604999824845, -23.000850999792128, 564.4 ] } },
{ "type": "Feature", "properties": { "fid": 204, "not_valid": null }, "geometry": { "type": "Point", "coordinates": [ -47.470702999825576, -22.975983999793137, 530.4 ] } },
{ "type": "Feature", "properties": { "fid": 205, "not_valid": null }, "geometry": { "type": "Point", "coordinates": [ -47.47357999982593, -22.96798399979351, 540.0 ] } },
{ "type": "Feature", "properties": { "fid": 206, "not_valid": null }, "geometry": { "type": "Point", "coordinates": [ -47.47481099982614, -22.96342099979379, 528.8 ] } },
{ "type": "Feature", "properties": { "fid": 207, "not_valid": null }, "geometry": { "type": "Point", "coordinates": [ -47.476345999826435, -22.957510999794138, 532.0 ] } },
{ "type": "Feature", "properties": { "fid": 208, "not_valid": null }, "geometry": { "type": "Point", "coordinates": [ -47.477918999826727, -22.951579999794458, 534.4 ] } },
{ "type": "Feature", "properties": { "fid": 209, "not_valid": null }, "geometry": { "type": "Point", "coordinates": [ -47.48348399982703, -22.942050999794859, 548.8 ] } },
{ "type": "Feature", "properties": { "fid": 210, "not_valid": null }, "geometry": { "type": "Point", "coordinates": [ -47.490141999827131, -22.935393999795004, 561.8 ] } },
{ "type": "Feature", "properties": { "fid": 211, "not_valid": null }, "geometry": { "type": "Point", "coordinates": [ -47.508557999827879, -22.908574999795977, 652.2 ] } },
{ "type": "Feature", "properties": { "fid": 212, "not_valid": null }, "geometry": { "type": "Point", "coordinates": [ -47.570608999829808, -22.829047999798522, 583.4 ] } },
{ "type": "Feature", "properties": { "fid": 213, "not_valid": null }, "geometry": { "type": "Point", "coordinates": [ -47.604983999834381, -22.725786999804079, 589.0 ] } },
{ "type": "Feature", "properties": { "fid": 214, "not_valid": null }, "geometry": { "type": "Point", "coordinates": [ -44.968586999950269, -22.641908999937581, 576.8 ] } },
{ "type": "Feature", "properties": { "fid": 215, "not_valid": null }, "geometry": { "type": "Point", "coordinates": [ -44.971582999952908, -22.593142999940902, 515.2 ] } },
{ "type": "Feature", "properties": { "fid": 216, "not_valid": null }, "geometry": { "type": "Point", "coordinates": [ -47.672551613562078, -22.698663488632597, 0.0 ] } },
{ "type": "Feature", "properties": { "fid": 217, "not_valid": null }, "geometry": { "type": "Point", "coordinates": [ -47.673688441067434, -22.701358190867513, 0.0 ] } },
{ "type": "Feature", "properties": { "fid": 218, "not_valid": null }, "geometry": { "type": "Point", "coordinates": [ -47.675611223391307, -22.702607297632657, 0.0 ] } },
{ "type": "Feature", "properties": { "fid": 219, "not_valid": null }, "geometry": { "type": "Point", "coordinates": [ -47.686081264366557, -22.706663385892512, 0.0 ] } },
{ "type": "Feature", "properties": { "fid": 220, "not_valid": null }, "geometry": { "type": "Point", "coordinates": [ -47.685470745891458, -22.704684463938747, 0.0 ] } },
{ "type": "Feature", "properties": { "fid": 221, "not_valid": null }, "geometry": { "type": "Point", "coordinates": [ -47.687997029236691, -22.707624777054448, 0.0 ] } },
{ "type": "Feature", "properties": { "fid": 222, "not_valid": null }, "geometry": { "type": "Point", "coordinates": [ -47.688372463011561, -22.683463683838767, 0.0 ] } },
{ "type": "Feature", "properties": { "fid": 223, "not_valid": null }, "geometry": { "type": "Point", "coordinates": [ -47.68278656983707, -22.685954879915336, 0.0 ] } },
{ "type": "Feature", "properties": { "fid": 224, "not_valid": null }, "geometry": { "type": "Point", "coordinates": [ -47.679740994915242, -22.654137744672738, 0.0 ] } },
{ "type": "Feature", "properties": { "fid": 225, "not_valid": null }, "geometry": { "type": "Point", "coordinates": [ -47.68842860264138, -22.63556956208522, 0.0 ] } },
{ "type": "Feature", "properties": { "fid": 226, "not_valid": null }, "geometry": { "type": "Point", "coordinates": [ -47.696751302773194, -22.631022252063779, 0.0 ] } }
]
}
