{
"type": "FeatureCollection",
"name": "tiles_to_remove_in_sp",
"crs": { "type": "name", "properties": { "name": "urn:ogc:def:crs:OGC:1.3:CRS84" } },
"features": [
{ "type": "Feature", "properties": { "fid": 16, "id": 980, "grid_status": "no point", "NUMPOINTS": 0.0, "GRID_ID": "980" }, "geometry": { "type": "MultiPolygon", "coordinates": [ [ [ [ -46.509, -24.1823272 ], [ -46.309, -24.1823272 ], [ -46.309, -24.3823272 ], [ -46.509, -24.3823272 ], [ -46.509, -24.1823272 ] ] ] ] } },
{ "type": "Feature", "properties": { "fid": 17, "id": 981, "grid_status": "no point", "NUMPOINTS": 0.0, "GRID_ID": "981" }, "geometry": { "type": "MultiPolygon", "coordinates": [ [ [ [ -46.509, -24.3823272 ], [ -46.309, -24.3823272 ], [ -46.309, -24.5823272 ], [ -46.509, -24.5823272 ], [ -46.509, -24.3823272 ] ] ] ] } },
{ "type": "Feature", "properties": { "fid": 18, "id": 982, "grid_status": "no point", "NUMPOINTS": 0.0, "GRID_ID": "982" }, "geometry": { "type": "MultiPolygon", "coordinates": [ [ [ [ -46.509, -24.5823272 ], [ -46.309, -24.5823272 ], [ -46.309, -24.7823272 ], [ -46.509, -24.7823272 ], [ -46.509, -24.5823272 ] ] ] ] } },
{ "type": "Feature", "properties": { "fid": 27, "id": 1010, "grid_status": "no point", "NUMPOINTS": 0.0, "GRID_ID": "1010" }, "geometry": { "type": "MultiPolygon", "coordinates": [ [ [ [ -46.309, -24.3823272 ], [ -46.109, -24.3823272 ], [ -46.109, -24.5823272 ], [ -46.309, -24.5823272 ], [ -46.309, -24.3823272 ] ] ] ] } },
{ "type": "Feature", "properties": { "fid": 28, "id": 1011, "grid_status": "no point", "NUMPOINTS": 0.0, "GRID_ID": "1011" }, "geometry": { "type": "MultiPolygon", "coordinates": [ [ [ [ -46.309, -24.5823272 ], [ -46.109, -24.5823272 ], [ -46.109, -24.7823272 ], [ -46.309, -24.7823272 ], [ -46.309, -24.5823272 ] ] ] ] } },
{ "type": "Feature", "properties": { "fid": 197, "id": 782, "grid_status": "no point", "NUMPOINTS": 0.0, "GRID_ID": "782" }, "geometry": { "type": "MultiPolygon", "coordinates": [ [ [ [ -47.909, -25.1823272 ], [ -47.709, -25.1823272 ], [ -47.709, -25.3823272 ], [ -47.909, -25.3823272 ], [ -47.909, -25.1823272 ] ] ] ] } },
{ "type": "Feature", "properties": { "fid": 198, "id": 783, "grid_status": "no point", "NUMPOINTS": 0.0, "GRID_ID": "783" }, "geometry": { "type": "MultiPolygon", "coordinates": [ [ [ [ -47.909, -25.3823272 ], [ -47.709, -25.3823272 ], [ -47.709, -25.5823272 ], [ -47.909, -25.5823272 ], [ -47.909, -25.3823272 ] ] ] ] } },
{ "type": "Feature", "properties": { "fid": 239, "id": 838, "grid_status": "no point", "NUMPOINTS": 0.0, "GRID_ID": "838" }, "geometry": { "type": "MultiPolygon", "coordinates": [ [ [ [ -47.509, -24.7823272 ], [ -47.309, -24.7823272 ], [ -47.309, -24.9823272 ], [ -47.509, -24.9823272 ], [ -47.509, -24.7823272 ] ] ] ] } },
{ "type": "Feature", "properties": { "fid": 243, "id": 810, "grid_status": "no point", "NUMPOINTS": 0.0, "GRID_ID": "810" }, "geometry": { "type": "MultiPolygon", "coordinates": [ [ [ [ -47.709, -24.9823272 ], [ -47.509, -24.9823272 ], [ -47.509, -25.1823272 ], [ -47.709, -25.1823272 ], [ -47.709, -24.9823272 ] ] ] ] } },
{ "type": "Feature", "properties": { "fid": 244, "id": 811, "grid_status": "no point", "NUMPOINTS": 0.0, "GRID_ID": "811" }, "geometry": { "type": "MultiPolygon", "coordinates": [ [ [ [ -47.709, -25.1823272 ], [ -47.509, -25.1823272 ], [ -47.509, -25.3823272 ], [ -47.709, -25.3823272 ], [ -47.709, -25.1823272 ] ] ] ] } },
{ "type": "Feature", "properties": { "fid": 245, "id": 812, "grid_status": "no point", "NUMPOINTS": 0.0, "GRID_ID": "812" }, "geometry": { "type": "MultiPolygon", "coordinates": [ [ [ [ -47.709, -25.3823272 ], [ -47.509, -25.3823272 ], [ -47.509, -25.5823272 ], [ -47.709, -25.5823272 ], [ -47.709, -25.3823272 ] ] ] ] } },
{ "type": "Feature", "properties": { "fid": 319, "id": 754, "grid_status": "no point", "NUMPOINTS": 0.0, "GRID_ID": "754" }, "geometry": { "type": "MultiPolygon", "coordinates": [ [ [ [ -48.109, -25.3823272 ], [ -47.909, -25.3823272 ], [ -47.909, -25.5823272 ], [ -48.109, -25.5823272 ], [ -48.109, -25.3823272 ] ] ] ] } },
{ "type": "Feature", "properties": { "fid": 503, "id": 1181, "grid_status": "no point", "NUMPOINTS": 0.0, "GRID_ID": "1181" }, "geometry": { "type": "MultiPolygon", "coordinates": [ [ [ [ -45.109, -23.7823272 ], [ -44.909, -23.7823272 ], [ -44.909, -23.9823272 ], [ -45.109, -23.9823272 ], [ -45.109, -23.7823272 ] ] ] ] } },
{ "type": "Feature", "properties": { "fid": 504, "id": 1182, "grid_status": "no point", "NUMPOINTS": 0.0, "GRID_ID": "1182" }, "geometry": { "type": "MultiPolygon", "coordinates": [ [ [ [ -45.109, -23.9823272 ], [ -44.909, -23.9823272 ], [ -44.909, -24.1823272 ], [ -45.109, -24.1823272 ], [ -45.109, -23.9823272 ] ] ] ] } },
{ "type": "Feature", "properties": { "fid": 515, "id": 1209, "grid_status": "no point", "NUMPOINTS": 0.0, "GRID_ID": "1209" }, "geometry": { "type": "MultiPolygon", "coordinates": [ [ [ [ -44.909, -23.5823272 ], [ -44.709, -23.5823272 ], [ -44.709, -23.7823272 ], [ -44.909, -23.7823272 ], [ -44.909, -23.5823272 ] ] ] ] } },
{ "type": "Feature", "properties": { "fid": 516, "id": 1210, "grid_status": "no point", "NUMPOINTS": 0.0, "GRID_ID": "1210" }, "geometry": { "type": "MultiPolygon", "coordinates": [ [ [ [ -44.909, -23.7823272 ], [ -44.709, -23.7823272 ], [ -44.709, -23.9823272 ], [ -44.909, -23.9823272 ], [ -44.909, -23.7823272 ] ] ] ] } },
{ "type": "Feature", "properties": { "fid": 517, "id": 1211, "grid_status": "no point", "NUMPOINTS": 0.0, "GRID_ID": "1211" }, "geometry": { "type": "MultiPolygon", "coordinates": [ [ [ [ -44.909, -23.9823272 ], [ -44.709, -23.9823272 ], [ -44.709, -24.1823272 ], [ -44.909, -24.1823272 ], [ -44.909, -23.9823272 ] ] ] ] } },
{ "type": "Feature", "properties": { "fid": 540, "id": 1124, "grid_status": "no point", "NUMPOINTS": 0.0, "GRID_ID": "1124" }, "geometry": { "type": "MultiPolygon", "coordinates": [ [ [ [ -45.509, -23.9823272 ], [ -45.309, -23.9823272 ], [ -45.309, -24.1823272 ], [ -45.509, -24.1823272 ], [ -45.509, -23.9823272 ] ] ] ] } },
{ "type": "Feature", "properties": { "fid": 541, "id": 1125, "grid_status": "no point", "NUMPOINTS": 0.0, "GRID_ID": "1125" }, "geometry": { "type": "MultiPolygon", "coordinates": [ [ [ [ -45.509, -24.1823272 ], [ -45.309, -24.1823272 ], [ -45.309, -24.3823272 ], [ -45.509, -24.3823272 ], [ -45.509, -24.1823272 ] ] ] ] } },
{ "type": "Feature", "properties": { "fid": 543, "id": 1096, "grid_status": "no point", "NUMPOINTS": 0.0, "GRID_ID": "1096" }, "geometry": { "type": "MultiPolygon", "coordinates": [ [ [ [ -45.709, -24.1823272 ], [ -45.509, -24.1823272 ], [ -45.509, -24.3823272 ], [ -45.709, -24.3823272 ], [ -45.709, -24.1823272 ] ] ] ] } },
{ "type": "Feature", "properties": { "fid": 558, "id": 1153, "grid_status": "no point", "NUMPOINTS": 0.0, "GRID_ID": "1153" }, "geometry": { "type": "MultiPolygon", "coordinates": [ [ [ [ -45.309, -23.9823272 ], [ -45.109, -23.9823272 ], [ -45.109, -24.1823272 ], [ -45.309, -24.1823272 ], [ -45.309, -23.9823272 ] ] ] ] } },
{ "type": "Feature", "properties": { "fid": 559, "id": 1154, "grid_status": "no point", "NUMPOINTS": 0.0, "GRID_ID": "1154" }, "geometry": { "type": "MultiPolygon", "coordinates": [ [ [ [ -45.309, -24.1823272 ], [ -45.109, -24.1823272 ], [ -45.109, -24.3823272 ], [ -45.309, -24.3823272 ], [ -45.309, -24.1823272 ] ] ] ] } },
{ "type": "Feature", "properties": { "fid": 601, "id": 1239, "grid_status": "no point", "NUMPOINTS": 0.0, "GRID_ID": "1239" }, "geometry": { "type": "MultiPolygon", "coordinates": [ [ [ [ -44.709, -23.7823272 ], [ -44.509, -23.7823272 ], [ -44.509, -23.9823272 ], [ -44.709, -23.9823272 ], [ -44.709, -23.7823272 ] ] ] ] } },
{ "type": "Feature", "properties": { "fid": 614, "id": 1237, "grid_status": "no point", "NUMPOINTS": 0.0, "GRID_ID": "1237" }, "geometry": { "type": "MultiPolygon", "coordinates": [ [ [ [ -44.709, -23.3823272 ], [ -44.509, -23.3823272 ], [ -44.509, -23.5823272 ], [ -44.709, -23.5823272 ], [ -44.709, -23.3823272 ] ] ] ] } },
{ "type": "Feature", "properties": { "fid": 615, "id": 1238, "grid_status": "no point", "NUMPOINTS": 0.0, "GRID_ID": "1238" }, "geometry": { "type": "MultiPolygon", "coordinates": [ [ [ [ -44.709, -23.5823272 ], [ -44.509, -23.5823272 ], [ -44.509, -23.7823272 ], [ -44.709, -23.7823272 ], [ -44.709, -23.5823272 ] ] ] ] } },
{ "type": "Feature", "properties": { "fid": 637, "id": 1267, "grid_status": "no point", "NUMPOINTS": 0.0, "GRID_ID": "1267" }, "geometry": { "type": "MultiPolygon", "coordinates": [ [ [ [ -44.509, -23.5823272 ], [ -44.309, -23.5823272 ], [ -44.309, -23.7823272 ], [ -44.509, -23.7823272 ], [ -44.509, -23.5823272 ] ] ] ] } },
{ "type": "Feature", "properties": { "fid": 645, "id": 923, "grid_status": "no point", "NUMPOINTS": 0.0, "GRID_ID": "923" }, "geometry": { "type": "MultiPolygon", "coordinates": [ [ [ [ -46.909, -24.3823272 ], [ -46.709, -24.3823272 ], [ -46.709, -24.5823272 ], [ -46.909, -24.5823272 ], [ -46.909, -24.3823272 ] ] ] ] } },
{ "type": "Feature", "properties": { "fid": 646, "id": 924, "grid_status": "no point", "NUMPOINTS": 0.0, "GRID_ID": "924" }, "geometry": { "type": "MultiPolygon", "coordinates": [ [ [ [ -46.909, -24.5823272 ], [ -46.709, -24.5823272 ], [ -46.709, -24.7823272 ], [ -46.909, -24.7823272 ], [ -46.909, -24.5823272 ] ] ] ] } },
{ "type": "Feature", "properties": { "fid": 647, "id": 925, "grid_status": "no point", "NUMPOINTS": 0.0, "GRID_ID": "925" }, "geometry": { "type": "MultiPolygon", "coordinates": [ [ [ [ -46.909, -24.7823272 ], [ -46.709, -24.7823272 ], [ -46.709, -24.9823272 ], [ -46.909, -24.9823272 ], [ -46.909, -24.7823272 ] ] ] ] } },
{ "type": "Feature", "properties": { "fid": 671, "id": 953, "grid_status": "no point", "NUMPOINTS": 0.0, "GRID_ID": "953" }, "geometry": { "type": "MultiPolygon", "coordinates": [ [ [ [ -46.709, -24.5823272 ], [ -46.509, -24.5823272 ], [ -46.509, -24.7823272 ], [ -46.709, -24.7823272 ], [ -46.709, -24.5823272 ] ] ] ] } },
{ "type": "Feature", "properties": { "fid": 733, "id": 867, "grid_status": "no point", "NUMPOINTS": 0.0, "GRID_ID": "867" }, "geometry": { "type": "MultiPolygon", "coordinates": [ [ [ [ -47.309, -24.7823272 ], [ -47.109, -24.7823272 ], [ -47.109, -24.9823272 ], [ -47.309, -24.9823272 ], [ -47.309, -24.7823272 ] ] ] ] } },
{ "type": "Feature", "properties": { "fid": 734, "id": 868, "grid_status": "no point", "NUMPOINTS": 0.0, "GRID_ID": "868" }, "geometry": { "type": "MultiPolygon", "coordinates": [ [ [ [ -47.309, -24.9823272 ], [ -47.109, -24.9823272 ], [ -47.109, -25.1823272 ], [ -47.309, -25.1823272 ], [ -47.309, -24.9823272 ] ] ] ] } },
{ "type": "Feature", "properties": { "fid": 735, "id": 839, "grid_status": "no point", "NUMPOINTS": 0.0, "GRID_ID": "839" }, "geometry": { "type": "MultiPolygon", "coordinates": [ [ [ [ -47.509, -24.9823272 ], [ -47.309, -24.9823272 ], [ -47.309, -25.1823272 ], [ -47.509, -25.1823272 ], [ -47.509, -24.9823272 ] ] ] ] } },
{ "type": "Feature", "properties": { "fid": 736, "id": 840, "grid_status": "no point", "NUMPOINTS": 0.0, "GRID_ID": "840" }, "geometry": { "type": "MultiPolygon", "coordinates": [ [ [ [ -47.509, -25.1823272 ], [ -47.309, -25.1823272 ], [ -47.309, -25.3823272 ], [ -47.509, -25.3823272 ], [ -47.509, -25.1823272 ] ] ] ] } },
{ "type": "Feature", "properties": { "fid": 760, "id": 895, "grid_status": "no point", "NUMPOINTS": 0.0, "GRID_ID": "895" }, "geometry": { "type": "MultiPolygon", "coordinates": [ [ [ [ -47.109, -24.5823272 ], [ -46.909, -24.5823272 ], [ -46.909, -24.7823272 ], [ -47.109, -24.7823272 ], [ -47.109, -24.5823272 ] ] ] ] } },
{ "type": "Feature", "properties": { "fid": 761, "id": 896, "grid_status": "no point", "NUMPOINTS": 0.0, "GRID_ID": "896" }, "geometry": { "type": "MultiPolygon", "coordinates": [ [ [ [ -47.109, -24.7823272 ], [ -46.909, -24.7823272 ], [ -46.909, -24.9823272 ], [ -47.109, -24.9823272 ], [ -47.109, -24.7823272 ] ] ] ] } },
{ "type": "Feature", "properties": { "fid": 762, "id": 897, "grid_status": "no point", "NUMPOINTS": 0.0, "GRID_ID": "897" }, "geometry": { "type": "MultiPolygon", "coordinates": [ [ [ [ -47.109, -24.9823272 ], [ -46.909, -24.9823272 ], [ -46.909, -25.1823272 ], [ -47.109, -25.1823272 ], [ -47.109, -24.9823272 ] ] ] ] } },
{ "type": "Feature", "properties": { "fid": 798, "id": 1037, "grid_status": "no point", "NUMPOINTS": 0.0, "GRID_ID": "1037" }, "geometry": { "type": "MultiPolygon", "coordinates": [ [ [ [ -46.109, -23.9823272 ], [ -45.909, -23.9823272 ], [ -45.909, -24.1823272 ], [ -46.109, -24.1823272 ], [ -46.109, -23.9823272 ] ] ] ] } },
{ "type": "Feature", "properties": { "fid": 799, "id": 1038, "grid_status": "no point", "NUMPOINTS": 0.0, "GRID_ID": "1038" }, "geometry": { "type": "MultiPolygon", "coordinates": [ [ [ [ -46.109, -24.1823272 ], [ -45.909, -24.1823272 ], [ -45.909, -24.3823272 ], [ -46.109, -24.3823272 ], [ -46.109, -24.1823272 ] ] ] ] } },
{ "type": "Feature", "properties": { "fid": 800, "id": 1039, "grid_status": "no point", "NUMPOINTS": 0.0, "GRID_ID": "1039" }, "geometry": { "type": "MultiPolygon", "coordinates": [ [ [ [ -46.109, -24.3823272 ], [ -45.909, -24.3823272 ], [ -45.909, -24.5823272 ], [ -46.109, -24.5823272 ], [ -46.109, -24.3823272 ] ] ] ] } },
{ "type": "Feature", "properties": { "fid": 816, "id": 1067, "grid_status": "no point", "NUMPOINTS": 0.0, "GRID_ID": "1067" }, "geometry": { "type": "MultiPolygon", "coordinates": [ [ [ [ -45.909, -24.1823272 ], [ -45.709, -24.1823272 ], [ -45.709, -24.3823272 ], [ -45.909, -24.3823272 ], [ -45.909, -24.1823272 ] ] ] ] } },
{ "type": "Feature", "properties": { "fid": 817, "id": 1068, "grid_status": "no point", "NUMPOINTS": 0.0, "GRID_ID": "1068" }, "geometry": { "type": "MultiPolygon", "coordinates": [ [ [ [ -45.909, -24.3823272 ], [ -45.709, -24.3823272 ], [ -45.709, -24.5823272 ], [ -45.909, -24.5823272 ], [ -45.909, -24.3823272 ] ] ] ] } }
]
}
